CCSDS_OMM_VERS = 2.0
CREATION_DATE  = 
ORIGINATOR     = 

OBJECT_NAME    = ERS-1
OBJECT_ID      = 1991-050A
CENTER_NAME    = EARTH
REF_FRAME      = TEME
TIME_SYSTEM    = UTC
MEAN_ELEMENT_THEORY = SGP/SGP4

EPOCH          = 2026-03-27T06:48:18.415872
MEAN_MOTION    = 14.39462297
ECCENTRICITY   = .00326159
INCLINATION    = 98.7868
RA_OF_ASC_NODE = 104.9597
ARG_OF_PERICENTER = 148.4656
MEAN_ANOMALY   = 211.8495

EPHEMERIS_TYPE = 0
CLASSIFICATION_TYPE = U
NORAD_CAT_ID   = 21574
ELEMENT_SET_NO = 999
REV_AT_EPOCH   = 81826
BSTAR          = .11631516E-3
MEAN_MOTION_DOT = .318E-5
MEAN_MOTION_DDOT = 0

CCSDS_OMM_VERS = 2.0
CREATION_DATE  = 
ORIGINATOR     = 

OBJECT_NAME    = ARIANE 40 R/B
OBJECT_ID      = 1991-050F
CENTER_NAME    = EARTH
REF_FRAME      = TEME
TIME_SYSTEM    = UTC
MEAN_ELEMENT_THEORY = SGP/SGP4

EPOCH          = 2026-03-27T03:41:41.356896
MEAN_MOTION    = 14.42906003
ECCENTRICITY   = .00036262
INCLINATION    = 98.1976
RA_OF_ASC_NODE = 137.7320
ARG_OF_PERICENTER = 41.8206
MEAN_ANOMALY   = 318.3261

EPHEMERIS_TYPE = 0
CLASSIFICATION_TYPE = U
NORAD_CAT_ID   = 21610
ELEMENT_SET_NO = 999
REV_AT_EPOCH   = 82151
BSTAR          = .10337693E-3
MEAN_MOTION_DOT = .304E-5
MEAN_MOTION_DDOT = 0

CCSDS_OMM_VERS = 2.0
CREATION_DATE  = 
ORIGINATOR     = 

OBJECT_NAME    = INTERCOSMOS 25
OBJECT_ID      = 1991-086A
CENTER_NAME    = EARTH
REF_FRAME      = TEME
TIME_SYSTEM    = UTC
MEAN_ELEMENT_THEORY = SGP/SGP4

EPOCH          = 2026-03-27T01:48:22.184064
MEAN_MOTION    = 12.12057217
ECCENTRICITY   = .1486591
INCLINATION    = 82.6018
RA_OF_ASC_NODE = 299.4982
ARG_OF_PERICENTER = 79.4738
MEAN_ANOMALY   = 296.9843

EPHEMERIS_TYPE = 0
CLASSIFICATION_TYPE = U
NORAD_CAT_ID   = 21819
ELEMENT_SET_NO = 999
REV_AT_EPOCH   = 49879
BSTAR          = .29723431E-3
MEAN_MOTION_DOT = .1552E-4
MEAN_MOTION_DDOT = 0

CCSDS_OMM_VERS = 2.0
CREATION_DATE  = 
ORIGINATOR     = 

OBJECT_NAME    = SL-8 R/B
OBJECT_ID      = 1992-008B
CENTER_NAME    = EARTH
REF_FRAME      = TEME
TIME_SYSTEM    = UTC
MEAN_ELEMENT_THEORY = SGP/SGP4

EPOCH          = 2026-03-27T04:42:49.853376
MEAN_MOTION    = 13.75969576
ECCENTRICITY   = .00359746
INCLINATION    = 82.9230
RA_OF_ASC_NODE = 254.7513
ARG_OF_PERICENTER = 86.1045
MEAN_ANOMALY   = 86.4963

EPHEMERIS_TYPE = 0
CLASSIFICATION_TYPE = U
NORAD_CAT_ID   = 21876
ELEMENT_SET_NO = 999
REV_AT_EPOCH   = 71182
BSTAR          = .16943665E-4
MEAN_MOTION_DOT = .32E-6
MEAN_MOTION_DDOT = 0

CCSDS_OMM_VERS = 2.0
CREATION_DATE  = 
ORIGINATOR     = 

OBJECT_NAME    = SL-8 R/B
OBJECT_ID      = 1992-020B
CENTER_NAME    = EARTH
REF_FRAME      = TEME
TIME_SYSTEM    = UTC
MEAN_ELEMENT_THEORY = SGP/SGP4

EPOCH          = 2026-03-27T05:20:56.584032
MEAN_MOTION    = 13.75550533
ECCENTRICITY   = .00277037
INCLINATION    = 82.9306
RA_OF_ASC_NODE = 140.7439
ARG_OF_PERICENTER = 247.5148
MEAN_ANOMALY   = 176.1213

EPHEMERIS_TYPE = 0
CLASSIFICATION_TYPE = U
NORAD_CAT_ID   = 21938
ELEMENT_SET_NO = 999
REV_AT_EPOCH   = 70354
BSTAR          = .19978032E-4
MEAN_MOTION_DOT = .34E-6
MEAN_MOTION_DDOT = 0

CCSDS_OMM_VERS = 2.0
CREATION_DATE  = 
ORIGINATOR     = 

OBJECT_NAME    = USA 81
OBJECT_ID      = 1992-023A
CENTER_NAME    = EARTH
REF_FRAME      = TEME
TIME_SYSTEM    = UTC
MEAN_ELEMENT_THEORY = SGP/SGP4

EPOCH          = 2026-03-27T04:38:00.278592
MEAN_MOTION    = 14.32373481
ECCENTRICITY   = .00018454
INCLINATION    = 85.0050
RA_OF_ASC_NODE = 121.3403
ARG_OF_PERICENTER = 68.0623
MEAN_ANOMALY   = 292.0765

EPHEMERIS_TYPE = 0
CLASSIFICATION_TYPE = U
NORAD_CAT_ID   = 21949
ELEMENT_SET_NO = 999
REV_AT_EPOCH   = 9729
BSTAR          = .56307207E-4
MEAN_MOTION_DOT = .172E-5
MEAN_MOTION_DDOT = 0

CCSDS_OMM_VERS = 2.0
CREATION_DATE  = 
ORIGINATOR     = 

OBJECT_NAME    = COSMOS 2219
OBJECT_ID      = 1992-076A
CENTER_NAME    = EARTH
REF_FRAME      = TEME
TIME_SYSTEM    = UTC
MEAN_ELEMENT_THEORY = SGP/SGP4

EPOCH          = 2026-03-27T03:14:03.711552
MEAN_MOTION    = 14.14091411
ECCENTRICITY   = .00179943
INCLINATION    = 71.0627
RA_OF_ASC_NODE = 341.6040
ARG_OF_PERICENTER = 181.6081
MEAN_ANOMALY   = 178.4986

EPHEMERIS_TYPE = 0
CLASSIFICATION_TYPE = U
NORAD_CAT_ID   = 22219
ELEMENT_SET_NO = 999
REV_AT_EPOCH   = 72084
BSTAR          = -.98088295E-4
MEAN_MOTION_DOT = -.234E-5
MEAN_MOTION_DDOT = 0

CCSDS_OMM_VERS = 2.0
CREATION_DATE  = 
ORIGINATOR     = 

OBJECT_NAME    = SL-16 R/B
OBJECT_ID      = 1992-076B
CENTER_NAME    = EARTH
REF_FRAME      = TEME
TIME_SYSTEM    = UTC
MEAN_ELEMENT_THEORY = SGP/SGP4

EPOCH          = 2026-03-27T06:40:10.063200
MEAN_MOTION    = 14.16864027
ECCENTRICITY   = .00106683
INCLINATION    = 71.0000
RA_OF_ASC_NODE = 151.3276
ARG_OF_PERICENTER = 63.4408
MEAN_ANOMALY   = 7.9194

EPHEMERIS_TYPE = 0
CLASSIFICATION_TYPE = U
NORAD_CAT_ID   = 22220
ELEMENT_SET_NO = 999
REV_AT_EPOCH   = 72432
BSTAR          = .2865646E-5
MEAN_MOTION_DOT = -.42E-6
MEAN_MOTION_DDOT = 0

CCSDS_OMM_VERS = 2.0
CREATION_DATE  = 
ORIGINATOR     = 

OBJECT_NAME    = COSMOS 2221
OBJECT_ID      = 1992-080A
CENTER_NAME    = EARTH
REF_FRAME      = TEME
TIME_SYSTEM    = UTC
MEAN_ELEMENT_THEORY = SGP/SGP4

EPOCH          = 2026-03-27T05:25:11.234208
MEAN_MOTION    = 14.96270424
ECCENTRICITY   = .00154132
INCLINATION    = 82.5006
RA_OF_ASC_NODE = 262.2779
ARG_OF_PERICENTER = 130.4081
MEAN_ANOMALY   = 229.8489

EPHEMERIS_TYPE = 0
CLASSIFICATION_TYPE = U
NORAD_CAT_ID   = 22236
ELEMENT_SET_NO = 999
REV_AT_EPOCH   = 78341
BSTAR          = .20659104E-3
MEAN_MOTION_DOT = .2363E-4
MEAN_MOTION_DDOT = 0

CCSDS_OMM_VERS = 2.0
CREATION_DATE  = 
ORIGINATOR     = 

OBJECT_NAME    = SL-16 R/B
OBJECT_ID      = 1992-093B
CENTER_NAME    = EARTH
REF_FRAME      = TEME
TIME_SYSTEM    = UTC
MEAN_ELEMENT_THEORY = SGP/SGP4

EPOCH          = 2026-03-27T02:59:03.691392
MEAN_MOTION    = 14.15453631
ECCENTRICITY   = .00064443
INCLINATION    = 71.0232
RA_OF_ASC_NODE = 327.6686
ARG_OF_PERICENTER = 276.6837
MEAN_ANOMALY   = 83.3552

EPHEMERIS_TYPE = 0
CLASSIFICATION_TYPE = U
NORAD_CAT_ID   = 22285
ELEMENT_SET_NO = 999
REV_AT_EPOCH   = 71562
BSTAR          = .15750463E-3
MEAN_MOTION_DOT = .26E-5
MEAN_MOTION_DDOT = 0

CCSDS_OMM_VERS = 2.0
CREATION_DATE  = 
ORIGINATOR     = 

OBJECT_NAME    = COSMOS 2228
OBJECT_ID      = 1992-094A
CENTER_NAME    = EARTH
REF_FRAME      = TEME
TIME_SYSTEM    = UTC
MEAN_ELEMENT_THEORY = SGP/SGP4

EPOCH          = 2026-03-27T07:08:06.632736
MEAN_MOTION    = 14.97277150
ECCENTRICITY   = .00167663
INCLINATION    = 82.5183
RA_OF_ASC_NODE = 220.4511
ARG_OF_PERICENTER = 240.3436
MEAN_ANOMALY   = 119.6117

EPHEMERIS_TYPE = 0
CLASSIFICATION_TYPE = U
NORAD_CAT_ID   = 22286
ELEMENT_SET_NO = 999
REV_AT_EPOCH   = 77869
BSTAR          = .22129631E-3
MEAN_MOTION_DOT = .2596E-4
MEAN_MOTION_DDOT = 0

CCSDS_OMM_VERS = 2.0
CREATION_DATE  = 
ORIGINATOR     = 

OBJECT_NAME    = SL-16 R/B
OBJECT_ID      = 1993-016B
CENTER_NAME    = EARTH
REF_FRAME      = TEME
TIME_SYSTEM    = UTC
MEAN_ELEMENT_THEORY = SGP/SGP4

EPOCH          = 2026-03-27T07:23:18.172608
MEAN_MOTION    = 14.15305402
ECCENTRICITY   = .00123327
INCLINATION    = 71.0078
RA_OF_ASC_NODE = 178.1805
ARG_OF_PERICENTER = 291.3710
MEAN_ANOMALY   = 68.6096

EPHEMERIS_TYPE = 0
CLASSIFICATION_TYPE = U
NORAD_CAT_ID   = 22566
ELEMENT_SET_NO = 999
REV_AT_EPOCH   = 70466
BSTAR          = -.24431282E-4
MEAN_MOTION_DOT = -.95E-6
MEAN_MOTION_DDOT = 0

